API VERSION: 1.2
API SOURCE: NASA/JPL Horizons API



*******************************************************************************
Ephemeris / API_USER Wed Apr  1 04:39:46 2026 Pasadena, USA      / Horizons
*******************************************************************************
Target body name: Artemis II (spacecraft) (-1024) {source: Artemis_II_merged}
Center body name: Earth (399)                     {source: DE441}
Center-site name: BODY CENTER
*******************************************************************************
Start time      : A.D. 2026-Apr-02 02:00:00.0000 TDB
Stop  time      : A.D. 2026-Apr-03 06:00:00.0000 TDB
Step-size       : 1 minutes
*******************************************************************************
Center geodetic : 0.0, 0.0, 0.0                   {E-lon(deg),Lat(deg),Alt(km)}
Center cylindric: 0.0, 0.0, 0.0                   {E-lon(deg),Dxy(km),Dz(km)}
Center radii    : 6378.137, 6378.137, 6356.752 km {Equator_a, b, pole_c}
Output units    : KM-S
Calendar mode   : Mixed Julian/Gregorian
Output type     : GEOMETRIC cartesian states
Output format   : 3 (position, velocity, LT, range, range-rate)
EOP file        : eop.260331.p260627
EOP coverage    : DATA-BASED 1962-JAN-20 TO 2026-MAR-31. PREDICTS-> 2026-JUN-26
Reference frame : ICRF
*******************************************************************************
JDTDB
   X     Y     Z
   VX    VY    VZ
   LT    RG    RR
*******************************************************************************
$$SOE
2461132.700000000 = A.D. 2026-Apr-02 04:48:00.0000 TDB 
 X =-3.154525653471247E+04 Y =-4.024907022491718E+04 Z =-2.170343090083783E+04
 VX= 8.569569368070892E-03 VY=-1.911744087059140E+00 VZ=-1.028257267447195E+00
 LT= 1.853046807020848E-01 RG= 5.555294570658317E+04 RR= 1.781945170345834E+00
2461132.700694445 = A.D. 2026-Apr-02 04:49:00.0000 TDB 
 X =-3.154461061965215E+04 Y =-4.036360658814272E+04 Z =-2.176503559140300E+04
 VX= 1.295670640239643E-02 VY=-1.906137412480663E+00 VZ=-1.025233891414174E+00
 LT= 1.856607077586649E-01 RG= 5.565967993298981E+04 RR= 1.775865736509377E+00
2461132.701388889 = A.D. 2026-Apr-02 04:50:00.0000 TDB 
 X =-3.154370223465517E+04 Y =-4.047780704018261E+04 Z =-2.182645914392022E+04
 VX= 1.731860777802670E-02 VY=-1.900547026327946E+00 VZ=-1.022219321035795E+00
 LT= 1.860155200985722E-01 RG= 5.576604999649935E+04 RR= 1.769806379482422E+00
2461132.702083333 = A.D. 2026-Apr-02 04:51:00.0000 TDB 
 X =-3.154253288659982E+04 Y =-4.059167255453656E+04 Z =-2.188770208466885E+04
 VX= 2.165551499421356E-02 VY=-1.894972801940020E+00 VZ=-1.019213487757162E+00
 LT= 1.863691217234190E-01 RG= 5.587205709676497E+04 RR= 1.763766934377499E+00
2461132.702777778 = A.D. 2026-Apr-02 04:52:00.0000 TDB 
 X =-3.154110406797150E+04 Y =-4.070520409714118E+04 Z =-2.194876493583483E+04
 VX= 2.596766632302477E-02 VY=-1.889414613883779E+00 VZ=-1.016216323689312E+00
 LT= 1.867215166019938E-01 RG= 5.597770242359952E+04 RR= 1.757747238077004E+00
2461132.703472222 = A.D. 2026-Apr-02 04:53:00.0000 TDB 
 X =-3.153941725705476E+04 Y =-4.081840262644297E+04 Z =-2.200964821555017E+04
 VX= 3.025529686276601E-02 VY=-1.883872337909967E+00 VZ=-1.013227761585872E+00
 LT= 1.870727086706121E-01 RG= 5.608298715708072E+04 RR= 1.751747129182069E+00
2461132.704166667 = A.D. 2026-Apr-02 04:54:00.0000 TDB 
 X =-3.153747391812185E+04 Y =-4.093126909347915E+04 Z =-2.207035243793685E+04
 VX= 3.451863860491446E-02 VY=-1.878345851377250E+00 VZ=-1.010247735070626E+00
 LT= 1.874227018334898E-01 RG= 5.618791246766302E+04 RR= 1.745766448392967E+00
2461132.704861111 = A.D. 2026-Apr-02 04:55:00.0000 TDB 
 X =-3.153527550161775E+04 Y =-4.104380444196302E+04 Z =-2.213087811315310E+04
 VX= 3.875792046769236E-02 VY=-1.872835032608115E+00 VZ=-1.007276178291395E+00
 LT= 1.877714999631281E-01 RG= 5.629247951629307E+04 RR= 1.739805037905804E+00
2461132.705555555 = A.D. 2026-Apr-02 04:56:00.0000 TDB 
 X =-3.153282344434354E+04 Y =-4.115600960832822E+04 Z =-2.219122574741734E+04
 VX= 4.297336834168800E-02 VY=-1.867339760685264E+00 VZ=-1.004313025810236E+00
 LT= 1.881191069005694E-01 RG= 5.639668945448646E+04 RR= 1.733862741212670E+00
2461132.706250000 = A.D. 2026-Apr-02 04:57:00.0000 TDB 
 X =-3.153011916963620E+04 Y =-4.126788552178162E+04 Z =-2.225139584303719E+04
 VX= 4.716520514841874E-02 VY=-1.861859915696638E+00 VZ=-1.001358212735039E+00
 LT= 1.884655264556789E-01 RG= 5.650054342441200E+04 RR= 1.727939403316145E+00
2461132.706944444 = A.D. 2026-Apr-02 04:58:00.0000 TDB 
 X =-3.152716408754412E+04 Y =-4.137943310440630E+04 Z =-2.231138889846500E+04
 VX= 5.133365093769399E-02 VY=-1.856395380397610E+00 VZ=-9.984116756136467E-01
 LT= 1.888107624075769E-01 RG= 5.660404255902148E+04 RR= 1.722034872260466E+00
2461132.707638889 = A.D. 2026-Apr-02 04:59:00.0000 TDB 
 X =-3.152395959499844E+04 Y =-4.149065327130110E+04 Z =-2.237120540837327E+04
 VX= 5.547892289346439E-02 VY=-1.850946038684389E+00 VZ=-9.954733516125710E-01
 LT= 1.891548185051843E-01 RG= 5.670718798221309E+04 RR= 1.716148997712358E+00
2461132.708333333 = A.D. 2026-Apr-02 05:00:00.0000 TDB 
 X =-3.152050707598507E+04 Y =-4.160154693059751E+04 Z =-2.243084586366403E+04
 VX= 5.960123534795175E-02 VY=-1.845511774432652E+00 VZ=-9.925431778922721E-01
 LT= 1.894976984673865E-01 RG= 5.680998080888063E+04 RR= 1.710281629872547E+00
2461132.709027778 = A.D. 2026-Apr-02 05:01:00.0000 TDB 
 X =-3.151680790171432E+04 Y =-4.171211498345980E+04 Z =-2.249031075146928E+04
 VX= 6.370079983146026E-02 VY=-1.840092471622641E+00 VZ=-9.896210916745841E-01
 LT= 1.898394059831433E-01 RG= 5.691242214494642E+04 RR= 1.704432619577618E+00
2461132.709722222 = A.D. 2026-Apr-02 05:02:00.0000 TDB 
 X =-3.151286343078615E+04 Y =-4.182235832414815E+04 Z =-2.254960055518511E+04
 VX= 6.777782518088969E-02 VY=-1.834688016595281E+00 VZ=-9.867070314557296E-01
 LT= 1.901799447117910E-01 RG= 5.701451308745193E+04 RR= 1.698601820387041E+00
2461132.710416667 = A.D. 2026-Apr-02 05:03:00.0000 TDB 
 X =-3.150867500935011E+04 Y =-4.193227784016696E+04 Z =-2.260871575455185E+04
 VX= 7.183251756748478E-02 VY=-1.829298297382184E+00 VZ=-9.838009366459680E-01
 LT= 1.905193182836081E-01 RG= 5.711625472472720E+04 RR= 1.692789087955892E+00
2461132.711111111 = A.D. 2026-Apr-02 05:04:00.0000 TDB 
 X =-3.150424397126510E+04 Y =-4.204187441232606E+04 Z =-2.266765682568724E+04
 VX= 7.586508051496464E-02 VY=-1.823923202790195E+00 VZ=-9.809027470774100E-01
 LT= 1.908575303001084E-01 RG= 5.721764813647897E+04 RR= 1.686994279175459E+00
2461132.711805556 = A.D. 2026-Apr-02 05:05:00.0000 TDB 
 X =-3.149957163825714E+04 Y =-4.215114891478007E+04 Z =-2.272642424110793E+04
 VX= 7.987571493662407E-02 VY=-1.818562622163381E+00 VZ=-9.780124028756016E-01
 LT= 1.911945843342660E-01 RG= 5.731869439385790E+04 RR= 1.681217251940772E+00
2461132.712500000 = A.D. 2026-Apr-02 05:06:00.0000 TDB 
 X =-3.149465932007423E+04 Y =-4.226010221507701E+04 Z =-2.278501846975578E+04
 VX= 8.386461919750895E-02 VY=-1.813216446116627E+00 VZ=-9.751298448541810E-01
 LT= 1.915304839307655E-01 RG= 5.741939455953369E+04 RR= 1.675457865825813E+00
2461132.713194444 = A.D. 2026-Apr-02 05:07:00.0000 TDB 
 X =-3.148950831463791E+04 Y =-4.236873517424060E+04 Z =-2.284343997704257E+04
 VX= 8.783198915275478E-02 VY=-1.807884566430543E+00 VZ=-9.722550144583880E-01
 LT= 1.918652326063566E-01 RG= 5.751974968780139E+04 RR= 1.669715981978667E+00
2461132.713888889 = A.D. 2026-Apr-02 05:08:00.0000 TDB 
 X =-3.148411990819278E+04 Y =-4.247704864683060E+04 Z =-2.290168922488256E+04
 VX= 9.177801818370233E-02 VY=-1.802566875872977E+00 VZ=-9.693878536686642E-01
 LT= 1.921988338501382E-01 RG= 5.761976082466653E+04 RR= 1.663991462946870E+00
2461132.714583333 = A.D. 2026-Apr-02 05:09:00.0000 TDB 
 X =-3.147849537545380E+04 Y =-4.258504348100181E+04 Z =-2.295976667172457E+04
 VX= 9.570289723730958E-02 VY=-1.797263268172130E+00 VZ=-9.665283049862623E-01
 LT= 1.925312911238369E-01 RG= 5.771942900792864E+04 RR= 1.658284172644353E+00
2461132.715277778 = A.D. 2026-Apr-02 05:10:00.0000 TDB 
 X =-3.147263597975121E+04 Y =-4.269272051856282E+04 Z =-2.301767277258385E+04
 VX= 9.960681486644410E-02 VY=-1.791973638079543E+00 VZ=-9.636763114673480E-01
 LT= 1.928626078620838E-01 RG= 5.781875526726421E+04 RR= 1.652593976403243E+00
2461132.715972222 = A.D. 2026-Apr-02 05:11:00.0000 TDB 
 X =-3.146654297317284E+04 Y =-4.280008059503790E+04 Z =-2.307540797907555E+04
 VX= 1.034899572681878E-01 VY=-1.786697881346979E+00 VZ=-9.608318167101336E-01
 LT= 1.931927874726982E-01 RG= 5.791774062431179E+04 RR= 1.646920740944546E+00
2461132.716666667 = A.D. 2026-Apr-02 05:12:00.0000 TDB 
 X =-3.146021759670451E+04 Y =-4.290712453972551E+04 Z =-2.313297273944648E+04
 VX= 1.073525083203303E-01 VY=-1.781435894698731E+00 VZ=-9.579947648400747E-01
 LT= 1.935218333369610E-01 RG= 5.801638609275387E+04 RR= 1.641264334345307E+00
2461132.717361111 = A.D. 2026-Apr-02 05:13:00.0000 TDB 
 X =-3.145366108036798E+04 Y =-4.301385317575657E+04 Z =-2.319036749860672E+04
 VX= 1.111946496184144E-01 VY=-1.776187575823513E+00 VZ=-9.551651005052268E-01
 LT= 1.938497488098846E-01 RG= 5.811469267839789E+04 RR= 1.635624626023712E+00
2461132.718055556 = A.D. 2026-Apr-02 05:14:00.0000 TDB 
 X =-3.144687464335692E+04 Y =-4.312026732015200E+04 Z =-2.324759269816076E+04
 VX= 1.150165605113599E-01 VY=-1.770952823363945E+00 VZ=-9.523427688709181E-01
 LT= 1.941765372204802E-01 RG= 5.821266137925624E+04 RR= 1.630001486722656E+00
2461132.718750000 = A.D. 2026-Apr-02 05:15:00.0000 TDB 
 X =-3.143985949417052E+04 Y =-4.322636778387963E+04 Z =-2.330464877643841E+04
 VX= 1.188184181368674E-01 VY=-1.765731536904686E+00 VZ=-9.495277156130090E-01
 LT= 1.945022018720202E-01 RG= 5.831029318562515E+04 RR= 1.624394788491645E+00
